GSAT0101 (GALILEO-PFM)  
1 37846U 11060A   25121.65234968 -.00000098  00000+0  00000+0 0  9996
2 37846  57.1003 352.9155 0003885  28.5198 331.5431  1.70475716 84104
GSAT0102 (GALILEO-FM2)  
1 37847U 11060B   25122.44615679 -.00000100  00000+0  00000+0 0  9991
2 37847  57.1013 352.8944 0004391 359.3736 173.1958  1.70475877 84121
GSAT0103 (GALILEO-FM3)  
1 38857U 12055A   25122.27847359  .00000038  00000+0  00000+0 0  9990
2 38857  55.5657 112.8316 0005989 286.5062  73.4107  1.70473479 78007
GSAT0201 (GALILEO 5)    
1 40128U 14050A   25122.16968650 -.00000053  00000+0  00000+0 0  9995
2 40128  49.3243 290.1885 1627939 163.5287 202.4604  1.85519671 70697
GSAT0202 (GALILEO 6)    
1 40129U 14050B   25122.96574636 -.00000055  00000+0  00000+0 0  9993
2 40129  49.3389 289.2373 1627912 164.3357 201.3713  1.85520322 72874
GSAT0203 (GALILEO 7)    
1 40544U 15017A   25123.19084736 -.00000101  00000+0  00000+0 0  9993
2 40544  56.8950 352.7644 0002911 298.5650  61.4443  1.70475819 62216
GSAT0204 (GALILEO 8)    
1 40545U 15017B   25122.85915059 -.00000100  00000+0  00000+0 0  9996
2 40545  56.9017 352.7902 0001782 279.6754  80.3434  1.70475531 25253
GSAT0205 (GALILEO 9)    
1 40889U 15045A   25122.62730785 -.00000024  00000+0  00000+0 0  9999
2 40889  55.0837 232.9447 0004252  45.5957 314.4437  1.70474053 60012
GSAT0206 (GALILEO 10)   
1 40890U 15045B   25119.91501633 -.00000008  00000+0  00000+0 0  9999
2 40890  55.0841 233.0149 0001957  44.4615 315.5527  1.70473867 59997
GSAT0209 (GALILEO 12)   
1 41174U 15079A   25122.42987578  .00000039  00000+0  00000+0 0  9991
2 41174  55.5854 112.5395 0005611 318.8025  41.1376  1.70474212 58358
GSAT0208 (GALILEO 11)   
1 41175U 15079B   25121.47668547  .00000037  00000+0  00000+0 0  9996
2 41175  55.5833 112.5632 0004996 319.7136  40.2309  1.70474064 58179
GSAT0211 (GALILEO 14)   
1 41549U 16030A   25123.36025588 -.00000029  00000+0  00000+0 0  9993
2 41549  55.2314 232.9657 0002051 349.1836  10.8157  1.70473982 55688
GSAT0210 (GALILEO 13)   
1 41550U 16030B   25122.44487906 -.00000022  00000+0  00000+0 0  9992
2 41550  55.2317 232.9892 0002672 214.1889 145.7987  1.70474083 55662
