[
    {
        "OBJECT_NAME": "GSAT0101 (GALILEO-PFM)",
        "OBJECT_ID": "2011-060A",
        "EPOCH": "2025-05-01T15:39:23.012352",
        "MEAN_MOTION": 1.70475716,
        "ECCENTRICITY": 0.0003885,
        "INCLINATION": 57.1003,
        "RA_OF_ASC_NODE": 352.9155,
        "ARG_OF_PERICENTER": 28.5198,
        "MEAN_ANOMALY": 331.5431,
        "EPHEMERIS_TYPE": 0,
        "CLASSIFICATION_TYPE": "U",
        "NORAD_CAT_ID": 37846,
        "ELEMENT_SET_NO": 999,
        "REV_AT_EPOCH": 8410,
        "BSTAR": 0,
        "MEAN_MOTION_DOT": -9.8e-07,
        "MEAN_MOTION_DDOT": 0
    },
    {
        "OBJECT_NAME": "GSAT0102 (GALILEO-FM2)",
        "OBJECT_ID": "2011-060B",
        "EPOCH": "2025-05-02T10:42:27.946656",
        "MEAN_MOTION": 1.70475877,
        "ECCENTRICITY": 0.0004391,
        "INCLINATION": 57.1013,
        "RA_OF_ASC_NODE": 352.8944,
        "ARG_OF_PERICENTER": 359.3736,
        "MEAN_ANOMALY": 173.1958,
        "EPHEMERIS_TYPE": 0,
        "CLASSIFICATION_TYPE": "U",
        "NORAD_CAT_ID": 37847,
        "ELEMENT_SET_NO": 999,
        "REV_AT_EPOCH": 8412,
        "BSTAR": 0,
        "MEAN_MOTION_DOT": -1e-06,
        "MEAN_MOTION_DDOT": 0
    },
    {
        "OBJECT_NAME": "GSAT0103 (GALILEO-FM3)",
        "OBJECT_ID": "2012-055A",
        "EPOCH": "2025-05-02T06:41:00.118176",
        "MEAN_MOTION": 1.70473479,
        "ECCENTRICITY": 0.0005989,
        "INCLINATION": 55.5657,
        "RA_OF_ASC_NODE": 112.8316,
        "ARG_OF_PERICENTER": 286.5062,
        "MEAN_ANOMALY": 73.4107,
        "EPHEMERIS_TYPE": 0,
        "CLASSIFICATION_TYPE": "U",
        "NORAD_CAT_ID": 38857,
        "ELEMENT_SET_NO": 999,
        "REV_AT_EPOCH": 7800,
        "BSTAR": 0,
        "MEAN_MOTION_DOT": 3.8e-07,
        "MEAN_MOTION_DDOT": 0
    },
    {
        "OBJECT_NAME": "GSAT0201 (GALILEO 5)",
        "OBJECT_ID": "2014-050A",
        "EPOCH": "2025-05-02T04:04:20.913600",
        "MEAN_MOTION": 1.85519671,
        "ECCENTRICITY": 0.1627939,
        "INCLINATION": 49.3243,
        "RA_OF_ASC_NODE": 290.1885,
        "ARG_OF_PERICENTER": 163.5287,
        "MEAN_ANOMALY": 202.4604,
        "EPHEMERIS_TYPE": 0,
        "CLASSIFICATION_TYPE": "U",
        "NORAD_CAT_ID": 40128,
        "ELEMENT_SET_NO": 999,
        "REV_AT_EPOCH": 7069,
        "BSTAR": 0,
        "MEAN_MOTION_DOT": -5.3e-07,
        "MEAN_MOTION_DDOT": 0
    },
    {
        "OBJECT_NAME": "GSAT0202 (GALILEO 6)",
        "OBJECT_ID": "2014-050B",
        "EPOCH": "2025-05-02T23:10:40.485504",
        "MEAN_MOTION": 1.85520322,
        "ECCENTRICITY": 0.1627912,
        "INCLINATION": 49.3389,
        "RA_OF_ASC_NODE": 289.2373,
        "ARG_OF_PERICENTER": 164.3357,
        "MEAN_ANOMALY": 201.3713,
        "EPHEMERIS_TYPE": 0,
        "CLASSIFICATION_TYPE": "U",
        "NORAD_CAT_ID": 40129,
        "ELEMENT_SET_NO": 999,
        "REV_AT_EPOCH": 7287,
        "BSTAR": 0,
        "MEAN_MOTION_DOT": -5.5e-07,
        "MEAN_MOTION_DDOT": 0
    },
    {
        "OBJECT_NAME": "GSAT0203 (GALILEO 7)",
        "OBJECT_ID": "2015-017A",
        "EPOCH": "2025-05-03T04:34:49.211904",
        "MEAN_MOTION": 1.70475819,
        "ECCENTRICITY": 0.0002911,
        "INCLINATION": 56.895,
        "RA_OF_ASC_NODE": 352.7644,
        "ARG_OF_PERICENTER": 298.565,
        "MEAN_ANOMALY": 61.4443,
        "EPHEMERIS_TYPE": 0,
        "CLASSIFICATION_TYPE": "U",
        "NORAD_CAT_ID": 40544,
        "ELEMENT_SET_NO": 999,
        "REV_AT_EPOCH": 6221,
        "BSTAR": 0,
        "MEAN_MOTION_DOT": -1.01e-06,
        "MEAN_MOTION_DDOT": 0
    },
    {
        "OBJECT_NAME": "GSAT0204 (GALILEO 8)",
        "OBJECT_ID": "2015-017B",
        "EPOCH": "2025-05-02T20:37:10.610976",
        "MEAN_MOTION": 1.70475531,
        "ECCENTRICITY": 0.0001782,
        "INCLINATION": 56.9017,
        "RA_OF_ASC_NODE": 352.7902,
        "ARG_OF_PERICENTER": 279.6754,
        "MEAN_ANOMALY": 80.3434,
        "EPHEMERIS_TYPE": 0,
        "CLASSIFICATION_TYPE": "U",
        "NORAD_CAT_ID": 40545,
        "ELEMENT_SET_NO": 999,
        "REV_AT_EPOCH": 2525,
        "BSTAR": 0,
        "MEAN_MOTION_DOT": -1e-06,
        "MEAN_MOTION_DDOT": 0
    },
    {
        "OBJECT_NAME": "GSAT0205 (GALILEO 9)",
        "OBJECT_ID": "2015-045A",
        "EPOCH": "2025-05-02T15:03:19.398240",
        "MEAN_MOTION": 1.70474053,
        "ECCENTRICITY": 0.0004252,
        "INCLINATION": 55.0837,
        "RA_OF_ASC_NODE": 232.9447,
        "ARG_OF_PERICENTER": 45.5957,
        "MEAN_ANOMALY": 314.4437,
        "EPHEMERIS_TYPE": 0,
        "CLASSIFICATION_TYPE": "U",
        "NORAD_CAT_ID": 40889,
        "ELEMENT_SET_NO": 999,
        "REV_AT_EPOCH": 6001,
        "BSTAR": 0,
        "MEAN_MOTION_DOT": -2.4e-07,
        "MEAN_MOTION_DDOT": 0
    },
    {
        "OBJECT_NAME": "GSAT0206 (GALILEO 10)",
        "OBJECT_ID": "2015-045B",
        "EPOCH": "2025-04-29T21:57:37.410912",
        "MEAN_MOTION": 1.70473867,
        "ECCENTRICITY": 0.0001957,
        "INCLINATION": 55.0841,
        "RA_OF_ASC_NODE": 233.0149,
        "ARG_OF_PERICENTER": 44.4615,
        "MEAN_ANOMALY": 315.5527,
        "EPHEMERIS_TYPE": 0,
        "CLASSIFICATION_TYPE": "U",
        "NORAD_CAT_ID": 40890,
        "ELEMENT_SET_NO": 999,
        "REV_AT_EPOCH": 5999,
        "BSTAR": 0,
        "MEAN_MOTION_DOT": -8e-08,
        "MEAN_MOTION_DDOT": 0
    },
    {
        "OBJECT_NAME": "GSAT0209 (GALILEO 12)",
        "OBJECT_ID": "2015-079A",
        "EPOCH": "2025-05-02T10:19:01.267392",
        "MEAN_MOTION": 1.70474212,
        "ECCENTRICITY": 0.0005611,
        "INCLINATION": 55.5854,
        "RA_OF_ASC_NODE": 112.5395,
        "ARG_OF_PERICENTER": 318.8025,
        "MEAN_ANOMALY": 41.1376,
        "EPHEMERIS_TYPE": 0,
        "CLASSIFICATION_TYPE": "U",
        "NORAD_CAT_ID": 41174,
        "ELEMENT_SET_NO": 999,
        "REV_AT_EPOCH": 5835,
        "BSTAR": 0,
        "MEAN_MOTION_DOT": 3.9e-07,
        "MEAN_MOTION_DDOT": 0
    },
    {
        "OBJECT_NAME": "GSAT0208 (GALILEO 11)",
        "OBJECT_ID": "2015-079B",
        "EPOCH": "2025-05-01T11:26:25.624608",
        "MEAN_MOTION": 1.70474064,
        "ECCENTRICITY": 0.0004996,
        "INCLINATION": 55.5833,
        "RA_OF_ASC_NODE": 112.5632,
        "ARG_OF_PERICENTER": 319.7136,
        "MEAN_ANOMALY": 40.2309,
        "EPHEMERIS_TYPE": 0,
        "CLASSIFICATION_TYPE": "U",
        "NORAD_CAT_ID": 41175,
        "ELEMENT_SET_NO": 999,
        "REV_AT_EPOCH": 5817,
        "BSTAR": 0,
        "MEAN_MOTION_DOT": 3.7e-07,
        "MEAN_MOTION_DDOT": 0
    },
    {
        "OBJECT_NAME": "GSAT0211 (GALILEO 14)",
        "OBJECT_ID": "2016-030A",
        "EPOCH": "2025-05-03T08:38:46.108032",
        "MEAN_MOTION": 1.70473982,
        "ECCENTRICITY": 0.0002051,
        "INCLINATION": 55.2314,
        "RA_OF_ASC_NODE": 232.9657,
        "ARG_OF_PERICENTER": 349.1836,
        "MEAN_ANOMALY": 10.8157,
        "EPHEMERIS_TYPE": 0,
        "CLASSIFICATION_TYPE": "U",
        "NORAD_CAT_ID": 41549,
        "ELEMENT_SET_NO": 999,
        "REV_AT_EPOCH": 5568,
        "BSTAR": 0,
        "MEAN_MOTION_DOT": -2.9e-07,
        "MEAN_MOTION_DDOT": 0
    },
    {
        "OBJECT_NAME": "GSAT0210 (GALILEO 13)",
        "OBJECT_ID": "2016-030B",
        "EPOCH": "2025-05-02T10:40:37.550784",
        "MEAN_MOTION": 1.70474083,
        "ECCENTRICITY": 0.0002672,
        "INCLINATION": 55.2317,
        "RA_OF_ASC_NODE": 232.9892,
        "ARG_OF_PERICENTER": 214.1889,
        "MEAN_ANOMALY": 145.7987,
        "EPHEMERIS_TYPE": 0,
        "CLASSIFICATION_TYPE": "U",
        "NORAD_CAT_ID": 41550,
        "ELEMENT_SET_NO": 999,
        "REV_AT_EPOCH": 5566,
        "BSTAR": 0,
        "MEAN_MOTION_DOT": -2.2e-07,
        "MEAN_MOTION_DDOT": 0
    }
]